[{"OBJECT_NAME":"STARLINK-11232 [DTC]","OBJECT_ID":"2024-141D","EPOCH":"2026-03-09T06:56:26.845440","MEAN_MOTION":15.69730151,"ECCENTRICITY":0.000132,"INCLINATION":53.1592,"RA_OF_ASC_NODE":87.9692,"ARG_OF_PERICENTER":100.2843,"MEAN_ANOMALY":259.8324,"EPHEMERIS_TYPE":0,"CLASSIFICATION_TYPE":"U","NORAD_CAT_ID":60401,"ELEMENT_SET_NO":999,"REV_AT_EPOCH":9168,"BSTAR":1.2142619e-5,"MEAN_MOTION_DOT":8.83e-6,"MEAN_MOTION_DDOT":0},{"OBJECT_NAME":"H-2A R\/B","OBJECT_ID":"2024-176B","EPOCH":"2026-03-09T21:03:59.315040","MEAN_MOTION":15.71096114,"ECCENTRICITY":0.00080006,"INCLINATION":97.2628,"RA_OF_ASC_NODE":207.174,"ARG_OF_PERICENTER":279.669,"MEAN_ANOMALY":80.367,"EPHEMERIS_TYPE":0,"CLASSIFICATION_TYPE":"U","NORAD_CAT_ID":61440,"ELEMENT_SET_NO":999,"REV_AT_EPOCH":8169,"BSTAR":0.00086786138,"MEAN_MOTION_DOT":0.00110274,"MEAN_MOTION_DDOT":0}]
